EUTELSAT 8 WEST B       
1 40875U 15039B   25363.82274492 -.00000045  00000+0  00000+0 0  9997
2 40875   0.0676  18.9162 0004166 259.7122 108.0748  1.00271572 37954
EUTELSAT 9B             
1 41310U 16005A   25363.75478191  .00000082  00000+0  00000+0 0  9990
2 41310   0.0364  57.8357 0004904 219.5481 101.7672  1.00270607 36417
EUTELSAT 65 WEST A      
1 41382U 16014A   25363.73996182 -.00000255  00000+0  00000+0 0  9995
2 41382   0.0790 306.8858 0002561 334.5916  18.1499  1.00269393 35833
EUTELSAT 117 WEST B     
1 41589U 16038B   25363.65849462  .00000009  00000+0  00000+0 0  9995
2 41589   0.0075 147.6425 0000287 251.5899 179.1794  1.00272313 34965
EUTELSAT 172B           
1 42741U 17029B   25363.57775252  .00000015  00000+0  00000+0 0  9990
2 42741   0.0389 160.5888 0000290  64.8811 252.7897  1.00271012 32037
EUTELSAT 7C             
1 44334U 19034B   25362.18510236  .00000070  00000+0  00000+0 0  9994
2 44334   0.0728 179.2505 0003354  81.6763 269.5862  1.00270336  5120
EUTELSAT 5 WEST B       
1 44624U 19067A   25363.82335161 -.00000021  00000+0  00000+0 0  9993
2 44624   0.0818 318.6993 0003483 318.3983 112.8252  1.00271949 22739
EUTELSAT KONNECT        
1 45027U 20005B   25362.39896869  .00000071  00000+0  00000+0 0  9997
2 45027   0.0692  94.1268 0001663 184.2569 329.5555  1.00268990 22629
